IRIDIUM 150             
1 43257U 18030J   24127.57809435  .00000235  00000+0  76966-4 0  9997
2 43257  86.3964 252.8981 0001835  94.9495 265.1910 14.34217593319580
IRIDIUM 143             
1 43258U 18030K   24127.07068690  .00000371  00000+0  12533-3 0  9993
2 43258  86.3967 253.1724 0001690  99.8927 260.2459 14.34219880319457
IRIDIUM 161             
1 43478U 18047C   24127.30876345  .00000646  00000+0  18596-3 0  9995
2 43478  86.4514  51.0450 0002383  87.6982 272.4492 14.43282324313805
IRIDIUM 152             
1 43479U 18047D   24126.83409976  .00000431  00000+0  14694-3 0  9992
2 43479  86.3988  51.1028 0002194  84.0063 276.1383 14.34220300311784
IRIDIUM 147             
1 43480U 18047E   24127.18928531  .00000467  00000+0  15968-3 0  9990
2 43480  86.3989  50.9459 0002459  83.8738 276.2738 14.34216782311832
IRIDIUM 110             
1 43481U 18047F   24127.54447226  .00000075  00000+0  19589-4 0  9997
2 43481  86.3994  50.8695 0002596  77.6880 282.4606 14.34215880311876
IRIDIUM 162             
1 43482U 18047G   24127.16380820  .00000616  00000+0  17710-3 0  9996
2 43482  86.4513  51.0061 0002413  86.3396 273.8080 14.43280102313772
IRIDIUM 160             
1 43569U 18061A   24126.93217213  .00000408  00000+0  13850-3 0  9997
2 43569  86.4014  19.5080 0002539  89.1451 271.0036 14.34217046302682
